{
 "type": "Feature",
 "properties": {
  "district_id": "wanhua",
  "city_id": "taipei",
  "name": "萬華區",
  "towncode": "63000070",
  "townid": "A05",
  "towneng": "Wanhua District",
  "center_lat": 25.029365,
  "center_lng": 121.497356,
  "radius_meters": 2500,
  "source": "內政部 鄉鎮市區界線(TWD97經緯度) 1140318",
  "source_url": "https://data.gov.tw/dataset/7441",
  "license": "政府資料開放授權條款-第1版",
  "crs_note": "原始資料為 TWD97[2020] 地理座標，與 WGS84/EPSG:4326 差異在公分等級，未做轉換"
 },
 "geometry": {
  "type": "Polygon",
  "coordinates": [
   [
    [
     121.5089926,
     25.0482879
    ],
    [
     121.508729,
     25.0483582
    ],
    [
     121.5085124,
     25.0484283
    ],
    [
     121.5083251,
     25.0485197
    ],
    [
     121.5082356,
     25.0485638
    ],
    [
     121.5081865,
     25.0485845
    ],
    [
     121.5080953,
     25.0486155
    ],
    [
     121.5079223,
     25.0486555
    ],
    [
     121.5076436,
     25.0486871
    ],
    [
     121.5075475,
     25.0486961
    ],
    [
     121.5073857,
     25.0487305
    ],
    [
     121.506332,
     25.0489541
    ],
    [
     121.5060595,
     25.0490598
    ],
    [
     121.5058434,
     25.0491608
    ],
    [
     121.5055478,
     25.0493139
    ],
    [
     121.5052143,
     25.0494878
    ],
    [
     121.5046423,
     25.0497524
    ],
    [
     121.5046187,
     25.0497206
    ],
    [
     121.5045422,
     25.0495862
    ],
    [
     121.5044681,
     25.0495068
    ],
    [
     121.5042708,
     25.0492861
    ],
    [
     121.5040283,
     25.0490376
    ],
    [
     121.5038976,
     25.0489088
    ],
    [
     121.5037367,
     25.0487707
    ],
    [
     121.5036901,
     25.0487287
    ],
    [
     121.5035909,
     25.0486396
    ],
    [
     121.5032942,
     25.048391
    ],
    [
     121.5031577,
     25.048232
    ],
    [
     121.503142,
     25.0481058
    ],
    [
     121.5031242,
     25.0480612
    ],
    [
     121.5031014,
     25.0480337
    ],
    [
     121.5030837,
     25.0480131
    ],
    [
     121.5030153,
     25.0479307
    ],
    [
     121.5029836,
     25.0478998
    ],
    [
     121.5028709,
     25.0477716
    ],
    [
     121.5027683,
     25.0476583
    ],
    [
     121.5027266,
     25.0476194
    ],
    [
     121.5026202,
     25.0475107
    ],
    [
     121.5024176,
     25.047283
    ],
    [
     121.5023099,
     25.0471525
    ],
    [
     121.5022391,
     25.0470793
    ],
    [
     121.5021038,
     25.0469045
    ],
    [
     121.5020566,
     25.0468435
    ],
    [
     121.5020152,
     25.0467911
    ],
    [
     121.5020059,
     25.0467794
    ],
    [
     121.5019552,
     25.0467175
    ],
    [
     121.5019159,
     25.0466557
    ],
    [
     121.5017396,
     25.046406
    ],
    [
     121.5017003,
     25.0463511
    ],
    [
     121.5016433,
     25.0462824
    ],
    [
     121.5015863,
     25.046208
    ],
    [
     121.5015052,
     25.0461084
    ],
    [
     121.5013918,
     25.0459873
    ],
    [
     121.5013584,
     25.0459516
    ],
    [
     121.5013015,
     25.0459128
    ],
    [
     121.5012244,
     25.045858
    ],
    [
     121.5011662,
     25.0458088
    ],
    [
     121.5009703,
     25.0456683
    ],
    [
     121.5008514,
     25.0455804
    ],
    [
     121.5007199,
     25.0454775
    ],
    [
     121.5005631,
     25.0453633
    ],
    [
     121.5004784,
     25.0453027
    ],
    [
     121.5003937,
     25.0452399
    ],
    [
     121.5003053,
     25.0451839
    ],
    [
     121.5002465,
     25.0451319
    ],
    [
     121.5002446,
     25.0451302
    ],
    [
     121.5002033,
     25.0451059
    ],
    [
     121.5000487,
     25.0450149
    ],
    [
     121.49993,
     25.0449465
    ],
    [
     121.4998926,
     25.0449323
    ],
    [
     121.4998429,
     25.0449135
    ],
    [
     121.4996572,
     25.0448131
    ],
    [
     121.4994072,
     25.0446981
    ],
    [
     121.499238,
     25.0446275
    ],
    [
     121.4990132,
     25.0445216
    ],
    [
     121.4988957,
     25.0444633
    ],
    [
     121.4988339,
     25.0444327
    ],
    [
     121.4986773,
     25.044362
    ],
    [
     121.498664,
     25.044356
    ],
    [
     121.4984424,
     25.044255
    ],
    [
     121.4983641,
     25.0442151
    ],
    [
     121.4981646,
     25.0441262
    ],
    [
     121.497907,
     25.0439905
    ],
    [
     121.4977959,
     25.0439496
    ],
    [
     121.4976684,
     25.0438984
    ],
    [
     121.4974675,
     25.0437923
    ],
    [
     121.4972832,
     25.0437034
    ],
    [
     121.4971038,
     25.0436145
    ],
    [
     121.4970791,
     25.043603
    ],
    [
     121.4970396,
     25.0435847
    ],
    [
     121.4968639,
     25.0435029
    ],
    [
     121.4967894,
     25.0434653
    ],
    [
     121.4966265,
     25.0433981
    ],
    [
     121.4964081,
     25.0433002
    ],
    [
     121.4963636,
     25.0432777
    ],
    [
     121.4962414,
     25.0432158
    ],
    [
     121.4960596,
     25.0431361
    ],
    [
     121.4958979,
     25.0430609
    ],
    [
     121.4956707,
     25.0429653
    ],
    [
     121.4956575,
     25.0429589
    ],
    [
     121.4956018,
     25.0429483
    ],
    [
     121.4954603,
     25.0429185
    ],
    [
     121.4953302,
     25.0428944
    ],
    [
     121.4952352,
     25.042855
    ],
    [
     121.4951393,
     25.0428444
    ],
    [
     121.4949514,
     25.0428437
    ],
    [
     121.4947762,
     25.0428418
    ],
    [
     121.4946235,
     25.0428293
    ],
    [
     121.4944432,
     25.0428297
    ],
    [
     121.494272,
     25.0428507
    ],
    [
     121.4941108,
     25.0428636
    ],
    [
     121.4939431,
     25.0428559
    ],
    [
     121.4938385,
     25.0428591
    ],
    [
     121.4936557,
     25.0428652
    ],
    [
     121.4935877,
     25.0428698
    ],
    [
     121.4935197,
     25.0428744
    ],
    [
     121.4935122,
     25.0428751
    ],
    [
     121.4934278,
     25.0428821
    ],
    [
     121.4932295,
     25.0428563
    ],
    [
     121.4930985,
     25.0428586
    ],
    [
     121.4929699,
     25.0428608
    ],
    [
     121.4928011,
     25.0428726
    ],
    [
     121.4926337,
     25.0428959
    ],
    [
     121.4924848,
     25.0428788
    ],
    [
     121.4922705,
     25.0428784
    ],
    [
     121.492118,
     25.0428831
    ],
    [
     121.4919529,
     25.0428868
    ],
    [
     121.4918823,
     25.0428909
    ],
    [
     121.4917612,
     25.0428828
    ],
    [
     121.4915356,
     25.0428904
    ],
    [
     121.491305,
     25.0428913
    ],
    [
     121.491069,
     25.0428726
    ],
    [
     121.4908684,
     25.0428606
    ],
    [
     121.4907775,
     25.0428453
    ],
    [
     121.4905983,
     25.0428285
    ],
    [
     121.4903787,
     25.0428097
    ],
    [
     121.4901781,
     25.042792
    ],
    [
     121.4900582,
     25.0427827
    ],
    [
     121.4898916,
     25.0427657
    ],
    [
     121.4897086,
     25.0427489
    ],
    [
     121.4894941,
     25.0427301
    ],
    [
     121.489393,
     25.0427103
    ],
    [
     121.4892354,
     25.0427037
    ],
    [
     121.4891695,
     25.0427037
    ],
    [
     121.489098,
     25.0427037
    ],
    [
     121.4890959,
     25.0427027
    ],
    [
     121.4889585,
     25.0426372
    ],
    [
     121.4888203,
     25.0425684
    ],
    [
     121.4887529,
     25.0425116
    ],
    [
     121.4886596,
     25.0423987
    ],
    [
     121.48856,
     25.042294
    ],
    [
     121.4884889,
     25.0422452
    ],
    [
     121.4883796,
     25.0421704
    ],
    [
     121.4882674,
     25.0420589
    ],
    [
     121.4882112,
     25.0419974
    ],
    [
     121.4881132,
     25.0419133
    ],
    [
     121.4879935,
     25.0418133
    ],
    [
     121.4878993,
     25.0417292
    ],
    [
     121.487768,
     25.0416007
    ],
    [
     121.4876596,
     25.0414948
    ],
    [
     121.4875321,
     25.0413639
    ],
    [
     121.4873868,
     25.0412321
    ],
    [
     121.4872596,
     25.0411264
    ],
    [
     121.4871449,
     25.0410184
    ],
    [
     121.4870097,
     25.0408875
    ],
    [
     121.4868494,
     25.0407569
    ],
    [
     121.4867067,
     25.0406204
    ],
    [
     121.4865541,
     25.0405046
    ],
    [
     121.4864239,
     25.040368
    ],
    [
     121.4863157,
     25.0402702
    ],
    [
     121.4862378,
     25.0401871
    ],
    [
     121.4861015,
     25.0400632
    ],
    [
     121.4860266,
     25.0400156
    ],
    [
     121.4859855,
     25.0399529
    ],
    [
     121.4859013,
     25.039864
    ],
    [
     121.485806,
     25.0397972
    ],
    [
     121.4857143,
     25.0397119
    ],
    [
     121.4856453,
     25.0396378
    ],
    [
     121.4855183,
     25.0395517
    ],
    [
     121.4853958,
     25.0394254
    ],
    [
     121.4853202,
     25.0393193
    ],
    [
     121.4852333,
     25.0392251
    ],
    [
     121.485213,
     25.0392031
    ],
    [
     121.4850998,
     25.0391123
    ],
    [
     121.4850102,
     25.0389948
    ],
    [
     121.484821,
     25.0387623
    ],
    [
     121.4847542,
     25.0386515
    ],
    [
     121.4846953,
     25.0385774
    ],
    [
     121.48459,
     25.0384096
    ],
    [
     121.4844724,
     25.0382649
    ],
    [
     121.4844066,
     25.03813
    ],
    [
     121.4843269,
     25.0379975
    ],
    [
     121.4842484,
     25.0378524
    ],
    [
     121.4841598,
     25.0377109
    ],
    [
     121.4841124,
     25.037647
    ],
    [
     121.4840821,
     25.0375302
    ],
    [
     121.483983,
     25.0373566
    ],
    [
     121.4839556,
     25.0372765
    ],
    [
     121.4838944,
     25.037106
    ],
    [
     121.4838366,
     25.0368987
    ],
    [
     121.4837796,
     25.0367661
    ],
    [
     121.4837267,
     25.0365484
    ],
    [
     121.4837077,
     25.0364258
    ],
    [
     121.4836659,
     25.0362987
    ],
    [
     121.4836516,
     25.0361543
    ],
    [
     121.4836345,
     25.0359776
    ],
    [
     121.483638,
     25.0358491
    ],
    [
     121.4836401,
     25.0357172
    ],
    [
     121.483641,
     25.0356631
    ],
    [
     121.4836385,
     25.0354508
    ],
    [
     121.4836413,
     25.035323
    ],
    [
     121.4836418,
     25.0352992
    ],
    [
     121.4836434,
     25.035292
    ],
    [
     121.4836898,
     25.0350796
    ],
    [
     121.483719,
     25.0348842
    ],
    [
     121.4837657,
     25.0346692
    ],
    [
     121.4838306,
     25.0344953
    ],
    [
     121.4838628,
     25.034339
    ],
    [
     121.4839149,
     25.034156
    ],
    [
     121.4839921,
     25.0339591
    ],
    [
     121.4840916,
     25.0337333
    ],
    [
     121.4841592,
     25.0335778
    ],
    [
     121.4842234,
     25.0334219
    ],
    [
     121.4842389,
     25.0333843
    ],
    [
     121.4843049,
     25.0331989
    ],
    [
     121.4843503,
     25.0330964
    ],
    [
     121.4844053,
     25.0329421
    ],
    [
     121.4844791,
     25.0327831
    ],
    [
     121.4845491,
     25.0326195
    ],
    [
     121.4846266,
     25.0324535
    ],
    [
     121.4846728,
     25.0323028
    ],
    [
     121.4847437,
     25.0321117
    ],
    [
     121.4847569,
     25.0320576
    ],
    [
     121.4847947,
     25.0319459
    ],
    [
     121.4848293,
     25.0317689
    ],
    [
     121.484883,
     25.0316146
    ],
    [
     121.4849394,
     25.0314753
    ],
    [
     121.4850261,
     25.0313425
    ],
    [
     121.4850701,
     25.0312251
    ],
    [
     121.4852318,
     25.030923
    ],
    [
     121.4852839,
     25.0308298
    ],
    [
     121.485322,
     25.0307615
    ],
    [
     121.4854404,
     25.030539
    ],
    [
     121.4855278,
     25.0303511
    ],
    [
     121.4856516,
     25.0301607
    ],
    [
     121.4857366,
     25.0299867
    ],
    [
     121.4858627,
     25.0297675
    ],
    [
     121.4859654,
     25.0296002
    ],
    [
     121.4860267,
     25.0294921
    ],
    [
     121.4860532,
     25.0294053
    ],
    [
     121.4861182,
     25.0292799
    ],
    [
     121.4861624,
     25.0291896
    ],
    [
     121.4862419,
     25.0290269
    ],
    [
     121.4863021,
     25.0289395
    ],
    [
     121.4863669,
     25.0287774
    ],
    [
     121.4864869,
     25.028537
    ],
    [
     121.4865325,
     25.0284411
    ],
    [
     121.4866143,
     25.0282691
    ],
    [
     121.4867666,
     25.0279115
    ],
    [
     121.4867839,
     25.0278743
    ],
    [
     121.4868732,
     25.0277479
    ],
    [
     121.4869532,
     25.0276876
    ],
    [
     121.4870126,
     25.0275952
    ],
    [
     121.4870751,
     25.0275465
    ],
    [
     121.48714,
     25.027492
    ],
    [
     121.487199,
     25.0274697
    ],
    [
     121.4872454,
     25.0274475
    ],
    [
     121.4873197,
     25.0273928
    ],
    [
     121.4873298,
     25.0273853
    ],
    [
     121.4873416,
     25.0273766
    ],
    [
     121.4874326,
     25.0272817
    ],
    [
     121.4874847,
     25.0272147
    ],
    [
     121.487524,
     25.0271226
    ],
    [
     121.4875374,
     25.0270888
    ],
    [
     121.4875476,
     25.0270631
    ],
    [
     121.4875669,
     25.0270143
    ],
    [
     121.4875724,
     25.0269419
    ],
    [
     121.4875948,
     25.0268143
    ],
    [
     121.4875822,
     25.0266962
    ],
    [
     121.4875859,
     25.0265791
    ],
    [
     121.4875797,
     25.0264805
    ],
    [
     121.487585,
     25.0262842
    ],
    [
     121.4875839,
     25.0261889
    ],
    [
     121.4875883,
     25.02606
    ],
    [
     121.4876331,
     25.0259614
    ],
    [
     121.4877268,
     25.0257545
    ],
    [
     121.487808,
     25.0255946
    ],
    [
     121.4878555,
     25.0254945
    ],
    [
     121.4879503,
     25.0252749
    ],
    [
     121.4880452,
     25.0250645
    ],
    [
     121.4881438,
     25.0248288
    ],
    [
     121.4882475,
     25.0246
    ],
    [
     121.4883548,
     25.024354
    ],
    [
     121.4884072,
     25.0242321
    ],
    [
     121.4885509,
     25.0239193
    ],
    [
     121.4886233,
     25.0237549
    ],
    [
     121.4886597,
     25.0236676
    ],
    [
     121.4886693,
     25.0236445
    ],
    [
     121.4886956,
     25.0235813
    ],
    [
     121.4887115,
     25.0235467
    ],
    [
     121.4887166,
     25.0235355
    ],
    [
     121.4887556,
     25.0234502
    ],
    [
     121.488803,
     25.0233467
    ],
    [
     121.4887185,
     25.0230651
    ],
    [
     121.4887004,
     25.022901
    ],
    [
     121.4886963,
     25.0227976
    ],
    [
     121.4886936,
     25.0227149
    ],
    [
     121.4886782,
     25.0226151
    ],
    [
     121.4886613,
     25.0224692
    ],
    [
     121.4886445,
     25.0223292
    ],
    [
     121.4886291,
     25.0222305
    ],
    [
     121.48862,
     25.0221294
    ],
    [
     121.4886059,
     25.022033
    ],
    [
     121.4885815,
     25.0219079
    ],
    [
     121.4885781,
     25.021883
    ],
    [
     121.4885742,
     25.0218551
    ],
    [
     121.4885545,
     25.0217127
    ],
    [
     121.4885378,
     25.0216105
    ],
    [
     121.4885135,
     25.0215095
    ],
    [
     121.4884892,
     25.0213959
    ],
    [
     121.4884355,
     25.0211411
    ],
    [
     121.488401,
     25.0210345
    ],
    [
     121.4883994,
     25.0210218
    ],
    [
     121.4884011,
     25.0209496
    ],
    [
     121.4884028,
     25.0208704
    ],
    [
     121.4884035,
     25.0208177
    ],
    [
     121.4884035,
     25.0208158
    ],
    [
     121.4884043,
     25.0207896
    ],
    [
     121.4884053,
     25.0207535
    ],
    [
     121.4883918,
     25.0206733
    ],
    [
     121.4883938,
     25.0206217
    ],
    [
     121.4883967,
     25.0205449
    ],
    [
     121.4883884,
     25.0204796
    ],
    [
     121.4883938,
     25.0203981
    ],
    [
     121.4883893,
     25.0203328
    ],
    [
     121.4883972,
     25.0202399
    ],
    [
     121.4884139,
     25.020156
    ],
    [
     121.4884134,
     25.0201056
    ],
    [
     121.488414,
     25.0200448
    ],
    [
     121.488408,
     25.0199657
    ],
    [
     121.4884201,
     25.0199152
    ],
    [
     121.4884241,
     25.0198188
    ],
    [
     121.4884321,
     25.0197465
    ],
    [
     121.4884668,
     25.019682
    ],
    [
     121.4884675,
     25.0196327
    ],
    [
     121.4884959,
     25.019574
    ],
    [
     121.4885004,
     25.0195269
    ],
    [
     121.4884985,
     25.019465
    ],
    [
     121.4884978,
     25.0194077
    ],
    [
     121.4885172,
     25.0193376
    ],
    [
     121.4885197,
     25.0192813
    ],
    [
     121.4885209,
     25.0192538
    ],
    [
     121.4885213,
     25.0192458
    ],
    [
     121.4885205,
     25.0191702
    ],
    [
     121.4885212,
     25.0191197
    ],
    [
     121.4885342,
     25.0190382
    ],
    [
     121.4885395,
     25.0189475
    ],
    [
     121.4885447,
     25.0188455
    ],
    [
     121.4885439,
     25.0187721
    ],
    [
     121.4885502,
     25.0186608
    ],
    [
     121.4885517,
     25.0185656
    ],
    [
     121.4885459,
     25.0184946
    ],
    [
     121.4885589,
     25.0184188
    ],
    [
     121.4885615,
     25.018311
    ],
    [
     121.488558,
     25.0182227
    ],
    [
     121.4885683,
     25.0181195
    ],
    [
     121.488567,
     25.0180025
    ],
    [
     121.4885695,
     25.0178867
    ],
    [
     121.488566,
     25.0177927
    ],
    [
     121.4885688,
     25.0177078
    ],
    [
     121.4885519,
     25.0176575
    ],
    [
     121.4885412,
     25.0176049
    ],
    [
     121.4885364,
     25.0175155
    ],
    [
     121.4885357,
     25.017449
    ],
    [
     121.4885348,
     25.0173653
    ],
    [
     121.4885506,
     25.0173159
    ],
    [
     121.4885374,
     25.0172586
    ],
    [
     121.4885471,
     25.0172219
    ],
    [
     121.4885488,
     25.0171485
    ],
    [
     121.488557,
     25.0170888
    ],
    [
     121.4885671,
     25.017046
    ],
    [
     121.4885678,
     25.0170428
    ],
    [
     121.488576,
     25.0169831
    ],
    [
     121.4885816,
     25.016912
    ],
    [
     121.4885882,
     25.0168305
    ],
    [
     121.4885938,
     25.0167594
    ],
    [
     121.4885966,
     25.0166768
    ],
    [
     121.4885989,
     25.0166633
    ],
    [
     121.4886061,
     25.0166206
    ],
    [
     121.4886155,
     25.0165528
    ],
    [
     121.4886362,
     25.0164861
    ],
    [
     121.4886433,
     25.0164402
    ],
    [
     121.4886614,
     25.0163632
    ],
    [
     121.4886636,
     25.0162689
    ],
    [
     121.488664,
     25.0162554
    ],
    [
     121.488673,
     25.0161636
    ],
    [
     121.4886748,
     25.0160948
    ],
    [
     121.4886777,
     25.0160122
    ],
    [
     121.4886715,
     25.0159068
    ],
    [
     121.4886847,
     25.0158459
    ],
    [
     121.4886952,
     25.0157633
    ],
    [
     121.4886951,
     25.0157604
    ],
    [
     121.4886917,
     25.0156739
    ],
    [
     121.4887011,
     25.0156142
    ],
    [
     121.4887104,
     25.0155396
    ],
    [
     121.4887223,
     25.0154752
    ],
    [
     121.4887404,
     25.015396
    ],
    [
     121.4887635,
     25.0153167
    ],
    [
     121.488803,
     25.0152372
    ],
    [
     121.4888212,
     25.0151694
    ],
    [
     121.4888609,
     25.0151083
    ],
    [
     121.4888975,
     25.0149979
    ],
    [
     121.488942,
     25.0149103
    ],
    [
     121.4889629,
     25.0148597
    ],
    [
     121.4890051,
     25.0147963
    ],
    [
     121.489047,
     25.0147076
    ],
    [
     121.4890817,
     25.0146488
    ],
    [
     121.4891252,
     25.0145945
    ],
    [
     121.4891474,
     25.0145462
    ],
    [
     121.4891721,
     25.0144932
    ],
    [
     121.4892139,
     25.0143931
    ],
    [
     121.489271,
     25.0143066
    ],
    [
     121.4893195,
     25.014242
    ],
    [
     121.4893592,
     25.0141786
    ],
    [
     121.4893936,
     25.014098
    ],
    [
     121.4894107,
     25.0140439
    ],
    [
     121.4894362,
     25.0139543
    ],
    [
     121.4894582,
     25.0138899
    ],
    [
     121.4894752,
     25.0138255
    ],
    [
     121.4894979,
     25.0137107
    ],
    [
     121.489501,
     25.0136464
    ],
    [
     121.4895102,
     25.0135707
    ],
    [
     121.4895558,
     25.0134705
    ],
    [
     121.4895576,
     25.0134074
    ],
    [
     121.4895756,
     25.0133224
    ],
    [
     121.4895734,
     25.0132365
    ],
    [
     121.4895649,
     25.0131773
    ],
    [
     121.4896204,
     25.0131618
    ],
    [
     121.489696,
     25.0131444
    ],
    [
     121.4898019,
     25.0130959
    ],
    [
     121.489982,
     25.013006
    ],
    [
     121.490108,
     25.0129425
    ],
    [
     121.4901874,
     25.0128975
    ],
    [
     121.490273,
     25.0128296
    ],
    [
     121.4903497,
     25.0127399
    ],
    [
     121.4904503,
     25.0126179
    ],
    [
     121.4904968,
     25.0125718
    ],
    [
     121.4905886,
     25.0124625
    ],
    [
     121.490806,
     25.0121623
    ],
    [
     121.4908601,
     25.0121082
    ],
    [
     121.4909268,
     25.0120449
    ],
    [
     121.4909758,
     25.0119724
    ],
    [
     121.491089,
     25.0118505
    ],
    [
     121.4911633,
     25.0117814
    ],
    [
     121.4912286,
     25.0117008
    ],
    [
     121.4913116,
     25.0115996
    ],
    [
     121.4913657,
     25.0115386
    ],
    [
     121.4914474,
     25.011419
    ],
    [
     121.4915353,
     25.0112948
    ],
    [
     121.491583,
     25.0112177
    ],
    [
     121.4916496,
     25.0111234
    ],
    [
     121.4916785,
     25.0110636
    ],
    [
     121.491784,
     25.0108877
    ],
    [
     121.4918304,
     25.0108083
    ],
    [
     121.4918743,
     25.0107106
    ],
    [
     121.4918981,
     25.0106531
    ],
    [
     121.4919572,
     25.0105646
    ],
    [
     121.4920563,
     25.0103898
    ],
    [
     121.4921506,
     25.0102518
    ],
    [
     121.4922573,
     25.0100862
    ],
    [
     121.4923792,
     25.0099113
    ],
    [
     121.4924659,
     25.0097756
    ],
    [
     121.4925665,
     25.0096606
    ],
    [
     121.4926594,
     25.009526
    ],
    [
     121.4927387,
     25.0094557
    ],
    [
     121.4928092,
     25.0093924
    ],
    [
     121.4929603,
     25.0092933
    ],
    [
     121.4931166,
     25.0092275
    ],
    [
     121.4932086,
     25.0092089
    ],
    [
     121.4933562,
     25.0092028
    ],
    [
     121.4935075,
     25.0091864
    ],
    [
     121.493611,
     25.0091804
    ],
    [
     121.4936905,
     25.009186
    ],
    [
     121.4938457,
     25.0091948
    ],
    [
     121.4940122,
     25.0091864
    ],
    [
     121.4940346,
     25.0091864
    ],
    [
     121.4942393,
     25.009187
    ],
    [
     121.4943932,
     25.0091958
    ],
    [
     121.4945194,
     25.0092012
    ],
    [
     121.4946405,
     25.0092147
    ],
    [
     121.4947768,
     25.0092282
    ],
    [
     121.4948929,
     25.0092417
    ],
    [
     121.4951656,
     25.0092835
    ],
    [
     121.4952968,
     25.0092993
    ],
    [
     121.4953605,
     25.0093161
    ],
    [
     121.4953701,
     25.0093187
    ],
    [
     121.4953756,
     25.0093202
    ],
    [
     121.4954673,
     25.0093448
    ],
    [
     121.4956503,
     25.0093846
    ],
    [
     121.4957942,
     25.0094222
    ],
    [
     121.4958902,
     25.0094552
    ],
    [
     121.4959875,
     25.0094883
    ],
    [
     121.4961062,
     25.0095317
    ],
    [
     121.4963284,
     25.0095989
    ],
    [
     121.4965444,
     25.0096983
    ],
    [
     121.496696,
     25.0097542
    ],
    [
     121.4968463,
     25.0098205
    ],
    [
     121.4969575,
     25.0098811
    ],
    [
     121.4970409,
     25.0099256
    ],
    [
     121.4971369,
     25.0099725
    ],
    [
     121.4972948,
     25.0100399
    ],
    [
     121.4979456,
     25.0104161
    ],
    [
     121.498158,
     25.0105569
    ],
    [
     121.4982629,
     25.0106198
    ],
    [
     121.4983349,
     25.0106483
    ],
    [
     121.4985775,
     25.0107993
    ],
    [
     121.4986837,
     25.0108542
    ],
    [
     121.4988442,
     25.0109606
    ],
    [
     121.4991134,
     25.0111208
    ],
    [
     121.4992423,
     25.01121
    ],
    [
     121.4994724,
     25.0113576
    ],
    [
     121.4997278,
     25.0115384
    ],
    [
     121.4998681,
     25.011646
    ],
    [
     121.4999326,
     25.0117022
    ],
    [
     121.5001538,
     25.011859
    ],
    [
     121.500274,
     25.0119528
    ],
    [
     121.500341,
     25.0120112
    ],
    [
     121.5004182,
     25.0120811
    ],
    [
     121.5005902,
     25.0122415
    ],
    [
     121.5007142,
     25.0123549
    ],
    [
     121.5007661,
     25.0124133
    ],
    [
     121.5008648,
     25.0125061
    ],
    [
     121.5009761,
     25.0126138
    ],
    [
     121.5011254,
     25.0127673
    ],
    [
     121.5012127,
     25.0128601
    ],
    [
     121.5012887,
     25.0129437
    ],
    [
     121.5014418,
     25.013111
    ],
    [
     121.5015368,
     25.0132165
    ],
    [
     121.5016672,
     25.013385
    ],
    [
     121.5018103,
     25.0135729
    ],
    [
     121.5019268,
     25.0137231
    ],
    [
     121.5020864,
     25.013934
    ],
    [
     121.5022004,
     25.0140968
    ],
    [
     121.5022511,
     25.0141817
    ],
    [
     121.5023968,
     25.0143696
    ],
    [
     121.5025487,
     25.0145657
    ],
    [
     121.5026462,
     25.0146894
    ],
    [
     121.502717,
     25.0147811
    ],
    [
     121.5027818,
     25.0148648
    ],
    [
     121.5029363,
     25.0150643
    ],
    [
     121.5030414,
     25.0151984
    ],
    [
     121.5031198,
     25.0152843
    ],
    [
     121.5031908,
     25.0153829
    ],
    [
     121.5033389,
     25.0155674
    ],
    [
     121.503444,
     25.0156981
    ],
    [
     121.5035783,
     25.0158631
    ],
    [
     121.5036927,
     25.0159916
    ],
    [
     121.5036998,
     25.0159995
    ],
    [
     121.5037129,
     25.0160196
    ],
    [
     121.5037999,
     25.0161531
    ],
    [
     121.5039328,
     25.0163147
    ],
    [
     121.5040746,
     25.0164878
    ],
    [
     121.5042012,
     25.0166345
    ],
    [
     121.5043018,
     25.0167482
    ],
    [
     121.5043734,
     25.0168293
    ],
    [
     121.5045165,
     25.0169966
    ],
    [
     121.5046139,
     25.0171123
    ],
    [
     121.5046886,
     25.017193
    ],
    [
     121.504706,
     25.0172118
    ],
    [
     121.5047317,
     25.0172395
    ],
    [
     121.504857,
     25.0173908
    ],
    [
     121.5050595,
     25.0176119
    ],
    [
     121.5051418,
     25.0177197
    ],
    [
     121.5053001,
     25.0179042
    ],
    [
     121.5053963,
     25.0179993
    ],
    [
     121.5055456,
     25.0181608
    ],
    [
     121.5056193,
     25.0182367
    ],
    [
     121.5057215,
     25.0183418
    ],
    [
     121.5058165,
     25.0184484
    ],
    [
     121.5059142,
     25.0185513
    ],
    [
     121.5059389,
     25.0185773
    ],
    [
     121.5059645,
     25.0186042
    ],
    [
     121.505972,
     25.0186121
    ],
    [
     121.5061405,
     25.0187898
    ],
    [
     121.5063707,
     25.0190098
    ],
    [
     121.5065479,
     25.019185
    ],
    [
     121.5066618,
     25.0192881
    ],
    [
     121.5067997,
     25.0194153
    ],
    [
     121.5070084,
     25.019595
    ],
    [
     121.5071475,
     25.0197199
    ],
    [
     121.5072551,
     25.0198149
    ],
    [
     121.5074284,
     25.0199776
    ],
    [
     121.5075435,
     25.0200806
    ],
    [
     121.5076978,
     25.0201974
    ],
    [
     121.507861,
     25.0203509
    ],
    [
     121.5080038,
     25.0204424
    ],
    [
     121.5080912,
     25.0205329
    ],
    [
     121.5082299,
     25.020667
    ],
    [
     121.5083352,
     25.0207795
    ],
    [
     121.5084007,
     25.0208499
    ],
    [
     121.5084604,
     25.0209092
    ],
    [
     121.5085783,
     25.0209808
    ],
    [
     121.5087117,
     25.0211029
    ],
    [
     121.5087675,
     25.0211416
    ],
    [
     121.508827,
     25.021171
    ],
    [
     121.5088878,
     25.021204
    ],
    [
     121.5089232,
     25.0212221
    ],
    [
     121.508993,
     25.0212745
    ],
    [
     121.5090526,
     25.0213097
    ],
    [
     121.5091209,
     25.0213415
    ],
    [
     121.5092663,
     25.0213796
    ],
    [
     121.5094284,
     25.0214647
    ],
    [
     121.509508,
     25.021478
    ],
    [
     121.5095952,
     25.0215062
    ],
    [
     121.5097205,
     25.0215513
    ],
    [
     121.5098178,
     25.0215851
    ],
    [
     121.5099924,
     25.0216415
    ],
    [
     121.5100405,
     25.0216641
    ],
    [
     121.5101314,
     25.0216785
    ],
    [
     121.5102817,
     25.0217028
    ],
    [
     121.5103487,
     25.0217185
    ],
    [
     121.5104372,
     25.0217409
    ],
    [
     121.5105572,
     25.0217597
    ],
    [
     121.5106266,
     25.0217707
    ],
    [
     121.5107719,
     25.0218031
    ],
    [
     121.5108716,
     25.0218037
    ],
    [
     121.5109941,
     25.0218133
    ],
    [
     121.5110698,
     25.0218174
    ],
    [
     121.5111656,
     25.0218133
    ],
    [
     121.5112906,
     25.0218195
    ],
    [
     121.511379,
     25.0218361
    ],
    [
     121.5114534,
     25.0218345
    ],
    [
     121.5115706,
     25.0218097
    ],
    [
     121.5116891,
     25.0218067
    ],
    [
     121.5118014,
     25.021806
    ],
    [
     121.5118784,
     25.0218124
    ],
    [
     121.5119667,
     25.0218141
    ],
    [
     121.5120587,
     25.0217941
    ],
    [
     121.5121733,
     25.0217715
    ],
    [
     121.5122552,
     25.0217584
    ],
    [
     121.5123334,
     25.0217487
    ],
    [
     121.5123876,
     25.0217449
    ],
    [
     121.512403,
     25.0217435
    ],
    [
     121.5124205,
     25.0219851
    ],
    [
     121.5124265,
     25.0221774
    ],
    [
     121.5124275,
     25.0224181
    ],
    [
     121.5124214,
     25.0226913
    ],
    [
     121.5124153,
     25.0229255
    ],
    [
     121.5123856,
     25.0232141
    ],
    [
     121.5123413,
     25.0239897
    ],
    [
     121.5122846,
     25.024013
    ],
    [
     121.5122383,
     25.0240278
    ],
    [
     121.5122103,
     25.0240367
    ],
    [
     121.5118796,
     25.0241422
    ],
    [
     121.511572,
     25.0242361
    ],
    [
     121.5115265,
     25.0242489
    ],
    [
     121.5111028,
     25.0243676
    ],
    [
     121.5105821,
     25.0245194
    ],
    [
     121.5101599,
     25.0246384
    ],
    [
     121.5101035,
     25.0246543
    ],
    [
     121.5100168,
     25.0246787
    ],
    [
     121.5094454,
     25.0248485
    ],
    [
     121.5092331,
     25.0249074
    ],
    [
     121.5091259,
     25.0249372
    ],
    [
     121.5091182,
     25.0249393
    ],
    [
     121.5090512,
     25.024958
    ],
    [
     121.5089174,
     25.025092
    ],
    [
     121.5085334,
     25.0254905
    ],
    [
     121.5084921,
     25.0255333
    ],
    [
     121.5082336,
     25.0257924
    ],
    [
     121.5079213,
     25.0260355
    ],
    [
     121.5072987,
     25.0265713
    ],
    [
     121.5071,
     25.0267623
    ],
    [
     121.5070928,
     25.0267693
    ],
    [
     121.5069008,
     25.0269538
    ],
    [
     121.5058091,
     25.0281173
    ],
    [
     121.5048221,
     25.0291892
    ],
    [
     121.5048079,
     25.0292046
    ],
    [
     121.5047637,
     25.0292526
    ],
    [
     121.5041865,
     25.0298761
    ],
    [
     121.5041665,
     25.0299106
    ],
    [
     121.5041354,
     25.0299642
    ],
    [
     121.5041354,
     25.0299782
    ],
    [
     121.5041356,
     25.0300221
    ],
    [
     121.5041371,
     25.0303322
    ],
    [
     121.5041409,
     25.0304928
    ],
    [
     121.5041605,
     25.0313232
    ],
    [
     121.5044049,
     25.0317777
    ],
    [
     121.5049406,
     25.0327734
    ],
    [
     121.505279,
     25.0334009
    ],
    [
     121.5053059,
     25.0334509
    ],
    [
     121.5054015,
     25.033628
    ],
    [
     121.5056867,
     25.0341465
    ],
    [
     121.5058104,
     25.0343713
    ],
    [
     121.5060244,
     25.0347863
    ],
    [
     121.5060801,
     25.0349243
    ],
    [
     121.5062331,
     25.0353085
    ],
    [
     121.5063266,
     25.0355434
    ],
    [
     121.5064969,
     25.0360227
    ],
    [
     121.5065057,
     25.0360475
    ],
    [
     121.5065733,
     25.0362379
    ],
    [
     121.5065859,
     25.0362755
    ],
    [
     121.5066902,
     25.0365885
    ],
    [
     121.5067702,
     25.0370071
    ],
    [
     121.5068075,
     25.0371368
    ],
    [
     121.5068724,
     25.0372413
    ],
    [
     121.50688,
     25.0372709
    ],
    [
     121.5068864,
     25.0372957
    ],
    [
     121.5068841,
     25.0373086
    ],
    [
     121.5068819,
     25.0373209
    ],
    [
     121.5067397,
     25.0374177
    ],
    [
     121.5067353,
     25.0374805
    ],
    [
     121.5067912,
     25.0376479
    ],
    [
     121.5070292,
     25.038371
    ],
    [
     121.5072849,
     25.0392208
    ],
    [
     121.507296,
     25.0392577
    ],
    [
     121.5075156,
     25.0399876
    ],
    [
     121.5076611,
     25.0404524
    ],
    [
     121.5081272,
     25.0420247
    ],
    [
     121.5081528,
     25.0420901
    ],
    [
     121.5081888,
     25.0421822
    ],
    [
     121.508235,
     25.0423006
    ],
    [
     121.5083453,
     25.0427007
    ],
    [
     121.5084698,
     25.0431893
    ],
    [
     121.5084842,
     25.0432457
    ],
    [
     121.5086034,
     25.0437132
    ],
    [
     121.5087692,
     25.0444034
    ],
    [
     121.5087878,
     25.044473
    ],
    [
     121.5088939,
     25.0448225
    ],
    [
     121.5089884,
     25.0451339
    ],
    [
     121.509013,
     25.0452149
    ],
    [
     121.5090415,
     25.0453086
    ],
    [
     121.5091261,
     25.0455873
    ],
    [
     121.5092461,
     25.0459825
    ],
    [
     121.5092606,
     25.0460306
    ],
    [
     121.5094036,
     25.0465014
    ],
    [
     121.509559,
     25.0470134
    ],
    [
     121.5096135,
     25.0471928
    ],
    [
     121.5096511,
     25.0473168
    ],
    [
     121.5097854,
     25.0475592
    ],
    [
     121.5099525,
     25.0477004
    ],
    [
     121.5102977,
     25.0479522
    ],
    [
     121.5104376,
     25.0480886
    ],
    [
     121.5106825,
     25.0483273
    ],
    [
     121.5106768,
     25.0483262
    ],
    [
     121.5105068,
     25.0483268
    ],
    [
     121.5103544,
     25.048338
    ],
    [
     121.5101787,
     25.0483866
    ],
    [
     121.5101753,
     25.0483879
    ],
    [
     121.510036,
     25.0484392
    ],
    [
     121.5100031,
     25.0484513
    ],
    [
     121.5098859,
     25.0484623
    ],
    [
     121.5098199,
     25.0484452
    ],
    [
     121.5097024,
     25.0483976
    ],
    [
     121.5096437,
     25.0483604
    ],
    [
     121.5095789,
     25.0483073
    ],
    [
     121.5095202,
     25.0482701
    ],
    [
     121.5094525,
     25.0482656
    ],
    [
     121.5089926,
     25.0482879
    ]
   ]
  ]
 }
}
